[{"OBJECT_NAME":"STARLINK-3852","OBJECT_ID":"2022-045Q","EPOCH":"2026-03-09T16:12:15.938208","MEAN_MOTION":15.08837906,"ECCENTRICITY":0.00013032,"INCLINATION":53.2166,"RA_OF_ASC_NODE":199.3501,"ARG_OF_PERICENTER":90.9929,"MEAN_ANOMALY":269.1213,"EPHEMERIS_TYPE":0,"CLASSIFICATION_TYPE":"U","NORAD_CAT_ID":52345,"ELEMENT_SET_NO":999,"REV_AT_EPOCH":21576,"BSTAR":7.3363788e-5,"MEAN_MOTION_DOT":8.8e-6,"MEAN_MOTION_DDOT":0},{"OBJECT_NAME":"CZ-6A DEB","OBJECT_ID":"2022-151ABN","EPOCH":"2026-03-09T19:31:34.351392","MEAN_MOTION":14.91930226,"ECCENTRICITY":0.0114204,"INCLINATION":98.6988,"RA_OF_ASC_NODE":184.3801,"ARG_OF_PERICENTER":80.6585,"MEAN_ANOMALY":280.7523,"EPHEMERIS_TYPE":0,"CLASSIFICATION_TYPE":"U","NORAD_CAT_ID":56246,"ELEMENT_SET_NO":999,"REV_AT_EPOCH":15979,"BSTAR":0.001440011,"MEAN_MOTION_DOT":0.00016487,"MEAN_MOTION_DDOT":0}]
